ONEWEB-0495             
1 54115U 22138C   23059.25885474 -.00000003  00000+0 -38874-4 0  9992
2 54115  87.9331 184.5408 0001214  93.9696 266.1576 13.19725163 18762
ONEWEB-0495             
1 54115U 22138C   23059.41048883  .00000021  00000+0  20332-4 0  9993
2 54115  87.9330 184.5108 0001214  94.2811 265.8461 13.19724497 17915
ONEWEB-0495             
1 54115U 22138C   23059.86539048 -.00000056  00000+0 -17309-3 0  9999
2 54115  87.9331 184.4210 0001219  95.3631 264.7641 13.19724278 17977
ONEWEB-0495             
1 54115U 22138C   23060.39610769 -.00000062  00000+0 -18777-3 0  9996
2 54115  87.9332 184.3163 0001234  95.6493 264.4781 13.19725289 18910
ONEWEB-0495             
1 54115U 22138C   23060.85100979 -.00000026  00000+0 -97073-4 0  9991
2 54115  87.9333 184.2261 0001260 100.2409 259.8866 13.19723941 18104
ONEWEB-0495             
1 54115U 22138C   23061.38172678  .00000142  00000+0  32239-3 0  9994
2 54115  87.9334 184.1214 0001249  99.6256 260.5018 13.19724932 18176
ONEWEB-0495             
1 54115U 22138C   23062.36734568  .00000104  00000+0  22705-3 0  9990
2 54115  87.9335 183.9269 0001226 100.0393 260.0878 13.19725673 18305
ONEWEB-0495             
1 54115U 22138C   23062.36734568  .00000104  00000+0  22705-3 0  9990
2 54115  87.9335 183.9269 0001226 100.0393 260.0878 13.19725673 19171
